[{"OBJECT_NAME":"STARLINK-2098","OBJECT_ID":"2021-005AF","EPOCH":"2026-03-09T02:03:46.038528","MEAN_MOTION":15.30199006,"ECCENTRICITY":0.00012278,"INCLINATION":53.1592,"RA_OF_ASC_NODE":16.9696,"ARG_OF_PERICENTER":84.6552,"MEAN_ANOMALY":275.4589,"EPHEMERIS_TYPE":0,"CLASSIFICATION_TYPE":"U","NORAD_CAT_ID":47378,"ELEMENT_SET_NO":999,"REV_AT_EPOCH":28362,"BSTAR":-9.8556e-8,"MEAN_MOTION_DOT":-3.62e-6,"MEAN_MOTION_DDOT":0},{"OBJECT_NAME":"RESURS-P 4","OBJECT_ID":"2024-061A","EPOCH":"2026-03-10T00:09:50.865408","MEAN_MOTION":15.32930455,"ECCENTRICITY":0.00024315,"INCLINATION":97.2654,"RA_OF_ASC_NODE":18.6595,"ARG_OF_PERICENTER":59.481,"MEAN_ANOMALY":300.6672,"EPHEMERIS_TYPE":0,"CLASSIFICATION_TYPE":"U","NORAD_CAT_ID":59371,"ELEMENT_SET_NO":999,"REV_AT_EPOCH":10857,"BSTAR":0.00016169192,"MEAN_MOTION_DOT":5.066e-5,"MEAN_MOTION_DDOT":0}]
